ONEWEB-0134             
1 47280U 20100Y   23271.82298730  .00000214  00000+0  55874-3 0  9996
2 47280  87.9075 187.9513 0002048  67.3136 292.8209 13.12445276134547
ONEWEB-0135             
1 47281U 20100Z   23271.79121083 -.00000273  00000+0 -79345-3 0  9995
2 47281  87.9074 187.9604 0001928  68.8951 291.2383 13.12443565134562
ONEWEB-0136             
1 47282U 20100AA  23271.81237874 -.00000349  00000+0 -10044-2 0  9999
2 47282  87.9005 187.9704 0002158  57.2737 302.8600 13.12443996134499
ONEWEB-0137             
1 47283U 20100AB  23271.77216241  .00000326  00000+0  87058-3 0  9993
2 47283  87.9072 187.9693 0001779  71.5244 288.6078 13.12444226134397
ONEWEB-0138             
1 47284U 20100AC  23271.82510820  .00000203  00000+0  52760-3 0  9996
2 47284  87.9074 187.9698 0001874  71.4695 288.6637 13.12444147134483
ONEWEB-0139             
1 47285U 20100AD  23271.79755607 -.00000478  00000+0 -13650-2 0  9997
2 47285  87.9015 187.9798 0002040  70.9168 289.2181 13.12442860134554
ONEWEB-0140             
1 47286U 20100AE  23271.81874802 -.00000009  00000+0 -61079-4 0  9990
2 47286  87.9071 187.9462 0001968  68.2914 291.8424 13.12445542134528
ONEWEB-0141             
1 47287U 20100AF  23271.84098031  .00000500  00000+0  13534-2 0  9991
2 47287  87.9071 187.9387 0001685  85.1809 274.9512 13.12442384134512
